NORAD_CAT_ID,OBJECT_NAME,OBJECT_TYPE,EPOCH,MEAN_MOTION,ECCENTRICITY,INCLINATION,RA_OF_ASC_NODE,ARG_OF_PERICENTER,MEAN_ANOMALY,BSTAR,MEAN_MOTION_DOT,MEAN_MOTION_DDOT,TLE_LINE0,TLE_LINE1,TLE_LINE2,SEMIMAJOR_AXIS,PERIOD,APOGEE,PERIGEE,DECAYED
52454.0,STARLINK-3888,PAYLOAD,2023-01-04 09:08:30,15.08840451,0.0002102,53.2152,237.9599,38.2634,321.8507,0.00031181,4.678e-05,0.0,0 STARLINK-3888,1 52454U 22049D   23004.38090622  .00004678  00000-0  31181-3 0  9998,2 52454  53.2152 237.9599 0002102  38.2634 321.8507 15.08840451 37108,6917.879,95.438,541.198,538.29,0.0
52454.0,STARLINK-3888,PAYLOAD,2023-01-04 21:51:35,15.08848704,0.0002194,53.2151,235.581,39.3499,320.7653,7.731e-05,9.43e-06,0.0,0 STARLINK-3888,1 52454U 22049D   23004.91082395  .00000943  00000-0  77310-4 0  9991,2 52454  53.2151 235.5810 0002194  39.3499 320.7653 15.08848704 37029,6917.854,95.437,541.237,538.201,0.0
52454.0,STARLINK-3888,PAYLOAD,2023-01-05 01:02:21,15.08853198,0.0002126,53.2159,234.9862,38.582,321.5324,6.0965e-05,6.82e-06,0.0,0 STARLINK-3888,1 52454U 22049D   23005.04330047  .00000682  00000-0  60965-4 0  9994,2 52454  53.2159 234.9862 0002126  38.5820 321.5324 15.08853198 37040,6917.84,95.437,541.1759999999998,538.234,0.0
52454.0,STARLINK-3888,PAYLOAD,2023-01-05 16:56:11,15.08853452,0.000215,53.2161,232.0142,40.2383,319.8768,0.0001034,1.358e-05,0.0,0 STARLINK-3888,1 52454U 22049D   23005.70569257  .00001358  00000-0  10340-3 0  9996,2 52454  53.2161 232.0142 0002150  40.2383 319.8768 15.08853452 37140,6917.839,95.437,541.192,538.217,0.0
52454.0,STARLINK-3888,PAYLOAD,2023-01-06 15:11:37,15.08829535,0.0002207,53.2156,227.8507,39.1048,321.0103,-8.3265e-05,-1.613e-05,0.0,0 STARLINK-3888,1 52454U 22049D   23006.63307193 -.00001613  00000-0 -83265-4 0  9991,2 52454  53.2156 227.8507 0002207  39.1048 321.0103 15.08829535 37445,6917.911999999998,95.438,541.304,538.251,0.0
52454.0,STARLINK-3888,PAYLOAD,2023-01-07 00:43:56,15.088353,0.0002229,53.2152,226.0665,39.4171,320.6983,-7.3413e-05,-1.456e-05,0.0,0 STARLINK-3888,1 52454U 22049D   23007.03050965 -.00001456  00000-0 -73413-4 0  9997,2 52454  53.2152 226.0665 0002229  39.4171 320.6983 15.08835300 37348,6917.895,95.438,541.302,538.2180000000002,0.0
52454.0,STARLINK-3888,PAYLOAD,2023-01-07 07:05:28,15.08837073,0.0002248,53.2153,224.8772,40.5029,319.613,-6.668e-05,-1.349e-05,0.0,0 STARLINK-3888,1 52454U 22049D   23007.29546939 -.00001349  00000-0 -66680-4 0  9995,2 52454  53.2153 224.8772 0002248  40.5029 319.6130 15.08837073 37543,6917.889,95.438,541.309,538.1990000000002,0.0
52454.0,STARLINK-3888,PAYLOAD,2023-01-07 21:23:56,15.08835312,0.0002294,53.2153,222.2006,36.9809,323.1341,-1.5044e-05,-5.28e-06,0.0,0 STARLINK-3888,1 52454U 22049D   23007.89163056 -.00000528  00000-0 -15044-4 0  9992,2 52454  53.2153 222.2006 0002294  36.9809 323.1341 15.08835312 37471,6917.895,95.438,541.347,538.173,0.0
52454.0,STARLINK-3888,PAYLOAD,2023-01-08 13:17:48,15.08827507,0.0002149,53.2152,219.2259,36.2033,323.9104,7.859100000000001e-05,9.62e-06,0.0,0 STARLINK-3888,1 52454U 22049D   23008.55403899  .00000962  00000-0  78591-4 0  9994,2 52454  53.2152 219.2259 0002149  36.2033 323.9104 15.08827507 37738,6917.919,95.438,541.27,538.297,0.0
52454.0,STARLINK-3888,PAYLOAD,2023-01-08 14:53:12,15.08828527,0.000216,53.215,218.9286,36.2481,323.8657,8.6665e-05,1.091e-05,0.0,0 STARLINK-3888,1 52454U 22049D   23008.62027866  .00001091  00000-0  86665-4 0  9993,2 52454  53.2150 218.9286 0002160  36.2481 323.8657 15.08828527 37580,6917.915,95.438,541.275,538.286,0.0
52454.0,STARLINK-3888,PAYLOAD,2023-01-09 14:43:58,15.08840329,0.0002225,53.215,214.4675,36.2146,323.8996,0.00013894,1.924e-05,0.0,0 STARLINK-3888,1 52454U 22049D   23009.61387415  .00001924  00000-0  13894-3 0  9990,2 52454  53.2150 214.4675 0002225  36.2146 323.8996 15.08840329 37730,6917.879,95.438,541.284,538.205,0.0
52454.0,STARLINK-3888,PAYLOAD,2023-01-10 06:37:49,15.08845593,0.0002329,53.2149,211.4939,37.6266,322.4889,0.00020974,3.052e-05,0.0,0 STARLINK-3888,1 52454U 22049D   23010.27627051  .00003052  00000-0  20974-3 0  9998,2 52454  53.2149 211.4939 0002329  37.6266 322.4889 15.08845593 37836,6917.863,95.437,541.339,538.117,0.0
52454.0,STARLINK-3888,PAYLOAD,2023-01-10 19:20:55,15.08847434,0.0002843,53.2131,209.1156,47.931,312.1924,6.6121e-05,7.64e-06,0.0,0 STARLINK-3888,1 52454U 22049D   23010.80619296  .00000764  00000-0  66121-4 0  9991,2 52454  53.2131 209.1156 0002843  47.9310 312.1924 15.08847434 38076,6917.858,95.437,541.689,537.756,0.0
52454.0,STARLINK-3888,PAYLOAD,2023-01-11 12:50:10,15.08841704,0.0002522,53.2136,205.8444,42.8732,317.2456,-2.875e-05,-7.46e-06,0.0,0 STARLINK-3888,1 52454U 22049D   23011.53483862 -.00000746  00000-0 -28750-4 0  9998,2 52454  53.2136 205.8444 0002522  42.8732 317.2456 15.08841704 38182,6917.875,95.437,541.485,537.995,0.0
52454.0,STARLINK-3888,PAYLOAD,2023-01-11 19:11:42,15.088406400000002,0.000239,53.2126,204.6554,41.0259,319.0912,-4.0712e-05,-9.36e-06,0.0,0 STARLINK-3888,1 52454U 22049D   23011.79979872 -.00000936  00000-0 -40712-4 0  9990,2 52454  53.2126 204.6554 0002390  41.0259 319.0912 15.08840640 38060,6917.8780000000015,95.438,541.3969999999998,538.09,0.0
52454.0,STARLINK-3888,PAYLOAD,2023-01-12 19:02:29,15.08838593,0.0002393,53.2121,200.1932,44.3793,315.7391,5.273399999999999e-05,5.51e-06,0.0,0 STARLINK-3888,1 52454U 22049D   23012.79339733  .00000551  00000-0  52734-4 0  9995,2 52454  53.2121 200.1932 0002393  44.3793 315.7391 15.08838593 38370,6917.885,95.438,541.405,538.094,0.0
52454.0,STARLINK-3888,PAYLOAD,2023-01-12 22:13:15,15.08838154,0.000231,53.2142,199.5987,46.4713,313.6471,7.5928e-05,9.2e-06,0.0,0 STARLINK-3888,1 52454U 22049D   23012.92587791  .00000920  00000-0  75928-4 0  9999,2 52454  53.2142 199.5987 0002310  46.4713 313.6471 15.08838154 38232,6917.886,95.438,541.349,538.153,0.0
52454.0,STARLINK-3888,PAYLOAD,2023-01-13 12:31:45,15.08824962,0.0002558,53.214,196.9218,51.2308,308.8912,1.3034e-05,-8.1e-07,0.0,0 STARLINK-3888,1 52454U 22049D   23013.52205350 -.00000081  00000-0  13034-4 0  9993,2 52454  53.2140 196.9218 0002558  51.2308 308.8912 15.08824962 38481,6917.926,95.439,541.561,538.0219999999999,0.0
52454.0,STARLINK-3888,PAYLOAD,2023-01-13 18:53:20,15.08801026,0.0002403,53.214,195.7327,45.3945,314.7243,-0.00019186,-3.337e-05,0.0,0 STARLINK-3888,1 52454U 22049D   23013.78703794 -.00003337  00000-0 -19186-3 0  9997,2 52454  53.2140 195.7327 0002403  45.3945 314.7243 15.08801026 38523,6918.0,95.44,541.5269999999999,538.202,0.0
52454.0,STARLINK-3888,PAYLOAD,2023-01-13 22:04:06,15.08802631,0.0003028,53.2104,195.1366,61.3512,298.7784,-0.00017233,-3.028e-05,0.0,0 STARLINK-3888,1 52454U 22049D   23013.91951949 -.00003028  00000-0 -17233-3 0  9997,2 52454  53.2104 195.1366 0003028  61.3512 298.7784 15.08802631 38380,6917.995,95.44,541.9540000000001,537.765,0.0
52454.0,STARLINK-3888,PAYLOAD,2023-01-14 04:25:37,15.08832043,0.0002288,53.2141,193.949,46.6043,313.5139,6.3491e-05,7.22e-06,0.0,0 STARLINK-3888,1 52454U 22049D   23014.18445609  .00000722  00000-0  63491-4 0  9992,2 52454  53.2141 193.9490 0002288  46.6043 313.5139 15.08832043 38589,6917.905,95.438,541.3530000000001,538.187,0.0
52454.0,STARLINK-3888,PAYLOAD,2023-01-15 04:16:23,15.088413,0.0002528999999999,53.2145,189.4884,52.9459,307.1764,0.00021654,3.16e-05,0.0,0 STARLINK-3888,1 52454U 22049D   23015.17805190  .00003160  00000-0  21654-3 0  9990,2 52454  53.2145 189.4884 0002529  52.9459 307.1764 15.08841300 38735,6917.876,95.437,541.491,537.992,0.0
52454.0,STARLINK-3888,PAYLOAD,2023-01-15 12:13:19,15.08839085,0.0002444,53.2138,188.0014,46.2637,313.8557,0.00053366,8.215e-05,0.0,0 STARLINK-3888,1 52454U 22049D   23015.50925785  .00008215  00000-0  53366-3 0  9991,2 52454  53.2138 188.0014 0002444  46.2637 313.8557 15.08839085 38783,6917.883000000001,95.438,541.439,538.057,0.0
52454.0,STARLINK-3888,PAYLOAD,2023-01-15 18:34:51,15.08858105,0.0002415,53.2139,186.8122,47.8066,312.313,0.00058773,9.083e-05,0.0,0 STARLINK-3888,1 52454U 22049D   23015.77421087  .00009083  00000-0  58773-3 0  9997,2 52454  53.2139 186.8122 0002415  47.8066 312.3130 15.08858105 38821,6917.825,95.436,541.361,538.019,0.0
52454.0,STARLINK-3888,PAYLOAD,2023-01-16 04:07:10,15.08861746,0.0002217,53.2134,185.0278,50.1979,309.9209,0.00034107,5.147e-05,0.0,0 STARLINK-3888,1 52454U 22049D   23016.17164501  .00005147  00000-0  34107-3 0  9999,2 52454  53.2134 185.0278 0002217  50.1979 309.9209 15.08861746 38722,6917.814,95.436,541.2130000000001,538.145,0.0
52454.0,STARLINK-3888,PAYLOAD,2023-01-16 20:01:01,15.08851128,0.0002429,53.2142,182.0544,55.7702,304.35200000000003,4.6683e-05,4.55e-06,0.0,0 STARLINK-3888,1 52454U 22049D   23016.83404466  .00000455  00000-0  46683-4 0  9999,2 52454  53.2142 182.0544 0002429  55.7702 304.3520 15.08851128 38980,6917.846,95.437,541.3919999999999,538.031,0.0
52454.0,STARLINK-3888,PAYLOAD,2023-01-17 03:57:57,15.08837237,0.0001933,53.2141,180.5681,55.9127,304.2048,-0.00026719,-4.538e-05,0.0,0 STARLINK-3888,1 52454U 22049D   23017.16524545 -.00004538  00000-0 -26719-3 0  9992,2 52454  53.2141 180.5681 0001933  55.9127 304.2048 15.08837237 39032,6917.889,95.438,541.091,538.4169999999999,0.0
52454.0,STARLINK-3888,PAYLOAD,2023-01-17 19:51:48,15.08842314,0.0002266999999999,53.2132,177.5931,62.3863,297.736,0.00030683,4.599e-05,0.0,0 STARLINK-3888,1 52454U 22049D   23017.82764743  .00004599  00000-0  30683-3 0  9991,2 52454  53.2132 177.5931 0002267  62.3863 297.7360 15.08842314 38973,6917.8730000000005,95.437,541.307,538.17,0.0
52454.0,STARLINK-3888,PAYLOAD,2023-01-18 10:10:17,15.08845686,0.0002230999999999,53.2125,174.9175,62.7382,297.3837,0.00045568,6.973e-05,0.0,0 STARLINK-3888,1 52454U 22049D   23018.42380851  .00006973  00000-0  45568-3 0  9998,2 52454  53.2125 174.9175 0002231  62.7382 297.3837 15.08845686 39226,6917.863,95.437,541.271,538.185,0.0
